{"fetched_at":"2026-07-18T06:28:35.159Z","source":"https://celestrak.org/NORAD/elements/gp.php?NAME=UMBRA&FORMAT=JSON","constellation":"umbra","records":[{"OBJECT_NAME":"UMBRA-07","OBJECT_ID":"2023-174AT","EPOCH":"2026-07-17T14:24:40.837824","CLASSIFICATION_TYPE":"U","MEAN_MOTION":15.09642765,"ECCENTRICITY":0.0002018,"INCLINATION":97.3772,"RA_OF_ASC_NODE":253.2193,"ARG_OF_PERICENTER":12.6313,"MEAN_ANOMALY":347.4966,"EPHEMERIS_TYPE":0,"NORAD_CAT_ID":58297,"ELEMENT_SET_NO":999,"REV_AT_EPOCH":14800,"BSTAR":0.00025528,"MEAN_MOTION_DOT":0.00004046,"MEAN_MOTION_DDOT":0},{"OBJECT_NAME":"UMBRA-09","OBJECT_ID":"2024-149CB","EPOCH":"2026-07-17T18:36:15.011136","CLASSIFICATION_TYPE":"U","MEAN_MOTION":15.18895623,"ECCENTRICITY":0.00020498,"INCLINATION":97.6971,"RA_OF_ASC_NODE":286.5233,"ARG_OF_PERICENTER":195.5157,"MEAN_ANOMALY":164.6014,"EPHEMERIS_TYPE":0,"NORAD_CAT_ID":60541,"ELEMENT_SET_NO":999,"REV_AT_EPOCH":10536,"BSTAR":0.00040315216,"MEAN_MOTION_DOT":0.00008343,"MEAN_MOTION_DDOT":0},{"OBJECT_NAME":"UMBRA-10","OBJECT_ID":"2024-149CH","EPOCH":"2026-07-17T18:35:35.662848","CLASSIFICATION_TYPE":"U","MEAN_MOTION":15.18895087,"ECCENTRICITY":0.00018326,"INCLINATION":97.6975,"RA_OF_ASC_NODE":286.5531,"ARG_OF_PERICENTER":160.8567,"MEAN_ANOMALY":199.2736,"EPHEMERIS_TYPE":0,"NORAD_CAT_ID":60547,"ELEMENT_SET_NO":999,"REV_AT_EPOCH":10537,"BSTAR":0.00038199392,"MEAN_MOTION_DOT":0.00007901,"MEAN_MOTION_DDOT":0},{"OBJECT_NAME":"UMBRA-11","OBJECT_ID":"2025-276CL","EPOCH":"2026-07-17T18:53:43.958112","CLASSIFICATION_TYPE":"U","MEAN_MOTION":15.27840165,"ECCENTRICITY":0.00029209,"INCLINATION":97.4183,"RA_OF_ASC_NODE":273.2513,"ARG_OF_PERICENTER":177.9415,"MEAN_ANOMALY":182.1837,"EPHEMERIS_TYPE":0,"NORAD_CAT_ID":66748,"ELEMENT_SET_NO":999,"REV_AT_EPOCH":3516,"BSTAR":0.00037974645,"MEAN_MOTION_DOT":0.00010254,"MEAN_MOTION_DDOT":0},{"OBJECT_NAME":"UMBRA-12","OBJECT_ID":"2026-004J","EPOCH":"2026-07-17T22:38:04.144128","CLASSIFICATION_TYPE":"U","MEAN_MOTION":14.89545183,"ECCENTRICITY":0.00072277,"INCLINATION":97.8027,"RA_OF_ASC_NODE":197.2925,"ARG_OF_PERICENTER":45.724,"MEAN_ANOMALY":314.4569,"EPHEMERIS_TYPE":0,"NORAD_CAT_ID":67371,"ELEMENT_SET_NO":999,"REV_AT_EPOCH":2788,"BSTAR":0.00026966502,"MEAN_MOTION_DOT":0.00002517,"MEAN_MOTION_DDOT":0}]}
