UMBRA-07                
1 58297U 23174AT  26198.60047266  .00004046  00000+0  25528-3 0  9993
2 58297  97.3772 253.2193 0002018  12.6313 347.4966 15.09642765148007
UMBRA-09                
1 60541U 24149CB  26198.77517374  .00008343  00000+0  40315-3 0  9996
2 60541  97.6971 286.5233 0002049 195.5157 164.6014 15.18895623105369
UMBRA-10                
1 60547U 24149CH  26198.77471832  .00007901  00000+0  38199-3 0  9996
2 60547  97.6975 286.5531 0001832 160.8567 199.2736 15.18895087105379
UMBRA-11                
1 66748U 25276CL  26198.78731433  .00010254  00000+0  37975-3 0  9990
2 66748  97.4183 273.2513 0002920 177.9415 182.1837 15.27840165 35169
UMBRA-12                
1 67371U 26004J   26198.94310352  .00002517  00000+0  26967-3 0  9996
2 67371  97.8027 197.2925 0007227  45.7240 314.4569 14.89545183 27889
